{"type": "FeatureCollection", "features": [ {"type": "Feature", "properties": {"norad_id": 66805, "name": "STARLINK-36049", "group": "last-30-days", "lat": 37.29559320462678, "lon": -62.8294709297403, "alt_km": 315.7646346032943, "timestamp": "2025-12-14T07:33:18.188235+00:00", "meta": {"OBJECT_NAME": "STARLINK-36049", "OBJECT_ID": "2025-278Q", "EPOCH": "2025-12-13T02:34:04.423296", "MEAN_MOTION": 15.86735504, "ECCENTRICITY": 0.00054756, "INCLINATION": 42.9968, "RA_OF_ASC_NODE": 249.7806, "ARG_OF_PERICENTER": 256.6916, "MEAN_ANOMALY": 103.3347, "EPHEMERIS_TYPE": 0, "CLASSIFICATION_TYPE": "U", "NORAD_CAT_ID": 66805, "ELEMENT_SET_NO": 999, "REV_AT_EPOCH": 189, "BSTAR": -0.0037719056, "MEAN_MOTION_DOT": -0.00902717, "MEAN_MOTION_DDOT": 0}, "tle": {"line1": "1 66805U 25278Q   25347.10699564 -.00902717  00000+0 -37719-2 0  9996", "line2": "2 66805  42.9968 249.7806 0005475 256.6916 103.3347 15.86735504  1890"}}, "geometry": {"type": "Point", "coordinates": [-62.8294709297403, 37.29559320462678]}}, {"type": "Feature", "properties": {"norad_id": 66806, "name": "STARLINK-36069", "group": "last-30-days", "lat": 39.701633030979764, "lon": -0.7889498392555833, "alt_km": 260.44903012711166, "timestamp": "2025-12-14T07:33:18.188246+00:00", "meta": {"OBJECT_NAME": "STARLINK-36069", "OBJECT_ID": "2025-278R", "EPOCH": "2025-12-12T23:33:28.013472", "MEAN_MOTION": 15.89964578, "ECCENTRICITY": 0.00095169, "INCLINATION": 42.9955, "RA_OF_ASC_NODE": 250.5622, "ARG_OF_PERICENTER": 265.6965, "MEAN_ANOMALY": 94.2822, "EPHEMERIS_TYPE": 0, "CLASSIFICATION_TYPE": "U", "NORAD_CAT_ID": 66806, "ELEMENT_SET_NO": 999, "REV_AT_EPOCH": 187, "BSTAR": 0.012088276, "MEAN_MOTION_DOT": 0.03313883, "MEAN_MOTION_DDOT": 0.010113462}, "tle": {"line1": "1 66806U 25278R   25346.98157423  .03313883  10113-1  12088-1 0  9995", "line2": "2 66806  42.9955 250.5622 0009516 265.6965  94.2822 15.89964578  1879"}}, "geometry": {"type": "Point", "coordinates": [-0.7889498392555833, 39.701633030979764]}}, {"type": "Feature", "properties": {"norad_id": 66807, "name": "STARLINK-36000", "group": "last-30-days", "lat": 41.3914898669505, "lon": -46.6163245017028, "alt_km": 308.3734138009113, "timestamp": "2025-12-14T07:33:18.188258+00:00", "meta": {"OBJECT_NAME": "STARLINK-36000", "OBJECT_ID": "2025-278S", "EPOCH": "2025-12-13T14:38:04.355232", "MEAN_MOTION": 15.87831279, "ECCENTRICITY": 0.00135246, "INCLINATION": 42.9961, "RA_OF_ASC_NODE": 246.6676, "ARG_OF_PERICENTER": 255.2326, "MEAN_ANOMALY": 104.7049, "EPHEMERIS_TYPE": 0, "CLASSIFICATION_TYPE": "U", "NORAD_CAT_ID": 66807, "ELEMENT_SET_NO": 999, "REV_AT_EPOCH": 197, "BSTAR": 0.0018963267, "MEAN_MOTION_DOT": 0.00566093, "MEAN_MOTION_DDOT": 0}, "tle": {"line1": "1 66807U 25278S   25347.60977263  .00566093  00000+0  18963-2 0  9999", "line2": "2 66807  42.9961 246.6676 0013524 255.2326 104.7049 15.87831279  1970"}}, "geometry": {"type": "Point", "coordinates": [-46.6163245017028, 41.3914898669505]}}, {"type": "Feature", "properties": {"norad_id": 66808, "name": "STARLINK-36071", "group": "last-30-days", "lat": 38.201213026806286, "lon": -60.03758418218889, "alt_km": 313.1016628104935, "timestamp": "2025-12-14T07:33:18.188268+00:00", "meta": {"OBJECT_NAME": "STARLINK-36071", "OBJECT_ID": "2025-278T", "EPOCH": "2025-12-13T14:38:42.056736", "MEAN_MOTION": 15.85022337, "ECCENTRICITY": 0.00035355, "INCLINATION": 42.997, "RA_OF_ASC_NODE": 246.6701, "ARG_OF_PERICENTER": 255.4186, "MEAN_ANOMALY": 104.6295, "EPHEMERIS_TYPE": 0, "CLASSIFICATION_TYPE": "U", "NORAD_CAT_ID": 66808, "ELEMENT_SET_NO": 999, "REV_AT_EPOCH": 197, "BSTAR": -0.00065689897, "MEAN_MOTION_DOT": -0.00157384, "MEAN_MOTION_DDOT": 0}, "tle": {"line1": "1 66808U 25278T   25347.61020899 -.00157384  00000+0 -65690-3 0  9996", "line2": "2 66808  42.9970 246.6701 0003535 255.4186 104.6295 15.85022337  1974"}}, "geometry": {"type": "Point", "coordinates": [-60.03758418218889, 38.201213026806286]}}, {"type": "Feature", "properties": {"norad_id": 66809, "name": "STARLINK-35979", "group": "last-30-days", "lat": 42.790502575351276, "lon": -34.22572966367435, "alt_km": 308.0639517841146, "timestamp": "2025-12-14T07:33:18.188280+00:00", "meta": {"OBJECT_NAME": "STARLINK-35979", "OBJECT_ID": "2025-278U", "EPOCH": "2025-12-13T14:35:43.976832", "MEAN_MOTION": 15.87786553, "ECCENTRICITY": 0.0014184, "INCLINATION": 42.9962, "RA_OF_ASC_NODE": 246.653, "ARG_OF_PERICENTER": 245.6682, "MEAN_ANOMALY": 114.2711, "EPHEMERIS_TYPE": 0, "CLASSIFICATION_TYPE": "U", "NORAD_CAT_ID": 66809, "ELEMENT_SET_NO": 999, "REV_AT_EPOCH": 197, "BSTAR": 0.0022005782, "MEAN_MOTION_DOT": 0.00663007, "MEAN_MOTION_DDOT": 0}, "tle": {"line1": "1 66809U 25278U   25347.60814788  .00663007  00000+0  22006-2 0  9999", "line2": "2 66809  42.9962 246.6530 0014184 245.6682 114.2711 15.87786553  1979"}}, "geometry": {"type": "Point", "coordinates": [-34.22572966367435, 42.790502575351276]}}, {"type": "Feature", "properties": {"norad_id": 66810, "name": "STARLINK-36046", "group": "last-30-days", "lat": 42.40568504139089, "lon": -16.337282128065446, "alt_km": 292.5252892810122, "timestamp": "2025-12-14T07:33:18.188290+00:00", "meta": {"OBJECT_NAME": "STARLINK-36046", "OBJECT_ID": "2025-278V", "EPOCH": "2025-12-13T01:00:19.749600", "MEAN_MOTION": 15.89788073, "ECCENTRICITY": 0.00029914, "INCLINATION": 42.9974, "RA_OF_ASC_NODE": 250.1521, "ARG_OF_PERICENTER": 285.6834, "MEAN_ANOMALY": 74.371, "EPHEMERIS_TYPE": 0, "CLASSIFICATION_TYPE": "U", "NORAD_CAT_ID": 66810, "ELEMENT_SET_NO": 999, "REV_AT_EPOCH": 188, "BSTAR": 0.0022644771, "MEAN_MOTION_DOT": 0.00758232, "MEAN_MOTION_DDOT": 0}, "tle": {"line1": "1 66810U 25278V   25347.04189525  .00758232  00000+0  22645-2 0  9997", "line2": "2 66810  42.9974 250.1521 0002991 285.6834  74.3710 15.89788073  1886"}}, "geometry": {"type": "Point", "coordinates": [-16.337282128065446, 42.40568504139089]}}, {"type": "Feature", "properties": {"norad_id": 66811, "name": "STARLINK-36045", "group": "last-30-days", "lat": 39.50640846692021, "lon": -0.024865498556828274, "alt_km": 273.4404228553185, "timestamp": "2025-12-14T07:33:18.188300+00:00", "meta": {"OBJECT_NAME": "STARLINK-36045", "OBJECT_ID": "2025-278W", "EPOCH": "2025-12-13T01:00:27.694944", "MEAN_MOTION": 15.89484454, "ECCENTRICITY": 0.00029504, "INCLINATION": 42.997, "RA_OF_ASC_NODE": 250.1519, "ARG_OF_PERICENTER": 282.9701, "MEAN_ANOMALY": 77.0844, "EPHEMERIS_TYPE": 0, "CLASSIFICATION_TYPE": "U", "NORAD_CAT_ID": 66811, "ELEMENT_SET_NO": 999, "REV_AT_EPOCH": 188, "BSTAR": 0.0092253817, "MEAN_MOTION_DOT": 0.03295879, "MEAN_MOTION_DDOT": 0}, "tle": {"line1": "1 66811U 25278W   25347.04198721  .03295879  00000+0  92254-2 0  9995", "line2": "2 66811  42.9970 250.1519 0002950 282.9701  77.0844 15.89484454  1882"}}, "geometry": {"type": "Point", "coordinates": [-0.024865498556828274, 39.50640846692021]}}, {"type": "Feature", "properties": {"norad_id": 66812, "name": "STARLINK-36054", "group": "last-30-days", "lat": 42.94150220037897, "lon": -30.515499260713153, "alt_km": 308.5928473949807, "timestamp": "2025-12-14T07:33:18.188311+00:00", "meta": {"OBJECT_NAME": "STARLINK-36054", "OBJECT_ID": "2025-278X", "EPOCH": "2025-12-13T14:35:08.624544", "MEAN_MOTION": 15.87959476, "ECCENTRICITY": 0.00150483, "INCLINATION": 42.9965, "RA_OF_ASC_NODE": 246.6502, "ARG_OF_PERICENTER": 267.6271, "MEAN_ANOMALY": 92.288, "EPHEMERIS_TYPE": 0, "CLASSIFICATION_TYPE": "U", "NORAD_CAT_ID": 66812, "ELEMENT_SET_NO": 999, "REV_AT_EPOCH": 197, "BSTAR": 0.002010288, "MEAN_MOTION_DOT": 0.00565966, "MEAN_MOTION_DDOT": 0.00012700597}, "tle": {"line1": "1 66812U 25278X   25347.60773871  .00565966  12701-3  20103-2 0  9996", "line2": "2 66812  42.9965 246.6502 0015048 267.6271  92.2880 15.87959476  1971"}}, "geometry": {"type": "Point", "coordinates": [-30.515499260713153, 42.94150220037897]}}, {"type": "Feature", "properties": {"norad_id": 66813, "name": "STARLINK-36042", "group": "last-30-days", "lat": 42.35216323020602, "lon": -39.64825194918004, "alt_km": 309.8119953325413, "timestamp": "2025-12-14T07:33:18.188323+00:00", "meta": {"OBJECT_NAME": "STARLINK-36042", "OBJECT_ID": "2025-278Y", "EPOCH": "2025-12-13T02:29:58.694784", "MEAN_MOTION": 15.86566064, "ECCENTRICITY": 0.00031581, "INCLINATION": 42.9975, "RA_OF_ASC_NODE": 249.7571, "ARG_OF_PERICENTER": 285.3486, "MEAN_ANOMALY": 74.7038, "EPHEMERIS_TYPE": 0, "CLASSIFICATION_TYPE": "U", "NORAD_CAT_ID": 66813, "ELEMENT_SET_NO": 999, "REV_AT_EPOCH": 189, "BSTAR": -0.0015776511, "MEAN_MOTION_DOT": -0.00395955, "MEAN_MOTION_DDOT": 0}, "tle": {"line1": "1 66813U 25278Y   25347.10415156 -.00395955  00000+0 -15777-2 0  9998", "line2": "2 66813  42.9975 249.7571 0003158 285.3486  74.7038 15.86566064  1894"}}, "geometry": {"type": "Point", "coordinates": [-39.64825194918004, 42.35216323020602]}}, {"type": "Feature", "properties": {"norad_id": 66814, "name": "STARLINK-35984", "group": "last-30-days", "lat": 38.89218432817553, "lon": 2.234530387574893, "alt_km": 302.48366947029353, "timestamp": "2025-12-14T07:33:18.188336+00:00", "meta": {"OBJECT_NAME": "STARLINK-35984", "OBJECT_ID": "2025-278Z", "EPOCH": "2025-12-12T05:17:39.039072", "MEAN_MOTION": 15.89263924, "ECCENTRICITY": 0.00022268, "INCLINATION": 42.9971, "RA_OF_ASC_NODE": 255.1754, "ARG_OF_PERICENTER": 272.7868, "MEAN_ANOMALY": 87.2751, "EPHEMERIS_TYPE": 0, "CLASSIFICATION_TYPE": "U", "NORAD_CAT_ID": 66814, "ELEMENT_SET_NO": 999, "REV_AT_EPOCH": 175, "BSTAR": -0.00078876214, "MEAN_MOTION_DOT": -0.00230906, "MEAN_MOTION_DDOT": 0}, "tle": {"line1": "1 66814U 25278Z   25346.22059073 -.00230906  00000+0 -78876-3 0  9997", "line2": "2 66814  42.9971 255.1754 0002226 272.7868  87.2751 15.89263924  1752"}}, "geometry": {"type": "Point", "coordinates": [2.234530387574893, 38.89218432817553]}}]}